OBJECT_NAME,OBJECT_ID,EPOCH,MEAN_MOTION,ECCENTRICITY,INCLINATION,RA_OF_ASC_NODE,ARG_OF_PERICENTER,MEAN_ANOMALY,EPHEMERIS_TYPE,CLASSIFICATION_TYPE,NORAD_CAT_ID,ELEMENT_SET_NO,REV_AT_EPOCH,BSTAR,MEAN_MOTION_DOT,MEAN_MOTION_DDOT
GAOFEN-11 01,2018-063A,2026-06-16T14:15:46.681920,15.55277466,.00032488,97.1293,234.4754,0.8796,359.2465,0,U,43585,999,44025,.22245987E-3,.14978E-3,0
ICESAT-2,2018-070A,2026-06-16T13:34:40.439712,15.28273082,.00059949,92.0084,290.8108,108.0359,252.1544,0,U,43613,999,43236,.28890278E-3,.7959E-4,0
HYSIS,2018-096A,2026-06-16T09:35:06.552096,14.78693317,.0001924,97.9845,234.1538,106.8178,253.3244,0,U,43719,999,40730,.79264296E-4,.529E-5,0
KAZSTSAT,2018-099AB,2026-06-16T13:31:51.119904,14.99864377,.00084789,97.4268,199.5204,71.4916,288.7229,0,U,43783,999,41121,.11492033E-3,.1369E-4,0
SAUDISAT 5A,2018-102A,2026-06-16T15:22:57.343872,15.28043580,.00109709,97.3068,229.2324,130.6874,229.5321,0,U,43831,999,41559,.17211158E-3,.4641E-4,0
SAUDISAT 5B,2018-102C,2026-06-16T14:15:56.406240,15.28300202,.00116517,97.3176,232.2553,133.0831,227.1386,0,U,43833,999,41570,.16580924E-3,.4505E-4,0
GAOFEN-10R,2019-066A,2026-06-16T14:44:13.691040,14.83059659,.00066419,98.0497,121.1891,129.0677,231.1128,0,U,44622,999,36229,.1200402E-3,.922E-5,0
CARTOSAT-3,2019-081A,2026-06-16T13:32:58.677792,15.19281750,.00131999,97.4309,229.4417,150.3638,209.8347,0,U,44804,999,36337,.22412136E-3,.467E-4,0
GAOFEN-12 01,2019-082A,2026-06-16T14:33:30.375648,14.80458043,.00022958,97.8100,174.0014,70.7140,289.4321,0,U,44819,999,35400,.45756062E-4,.299E-5,0
CSG-1,2019-092A,2026-06-16T13:53:26.049408,14.82152715,.00014612,97.8887,351.1900,89.7860,270.3521,0,U,44873,999,35138,.46023007E-4,.314E-5,0
NEMO-HD,2020-061F,2026-06-16T14:40:32.302272,15.44584225,.00022958,97.1919,229.5701,81.8478,278.3031,0,U,46277,999,32189,.19909789E-3,.917E-4,0
SENTINEL-6A,2020-086A,2026-06-16T07:18:48.163104,12.80929950,.00079451,66.0394,136.8852,270.2348,89.7757,0,U,46984,999,26021,-.59546343E-4,-.75E-6,0
CAS500-1,2021-022A,2026-06-16T14:27:14.997024,15.20127110,.00034331,97.3903,62.8678,304.4770,55.6141,0,U,47932,999,29067,.26341572E-3,.5628E-4,0
GAOFEN-12 02,2021-026A,2026-06-16T14:49:20.448192,14.80295793,.00036352,97.9921,165.8005,224.2159,135.8762,0,U,48079,999,28167,.44863911E-4,.289E-5,0
PLEIADES NEO 3,2021-034A,2026-06-16T15:29:18.697056,14.81675568,.00014034,97.8937,242.4199,88.4556,271.6818,0,U,48268,999,27757,.20956472E-3,.1598E-4,0
PLEIADES NEO 4,2021-073E,2026-06-16T14:40:40.378944,14.81674953,.00013606,97.8941,242.3822,85.1090,275.0278,0,U,49070,999,26128,.10326082E-3,.761E-5,0
LANDSAT 9,2021-088A,2026-06-16T03:59:42.912960,14.57096555,.00013571,98.2281,237.3563,85.6882,274.4471,0,U,49260,999,25085,.80381031E-4,.317E-5,0
CSG-2,2022-008A,2026-06-16T14:42:01.016928,14.82157316,.00014581,97.8876,351.2183,86.1478,273.9901,0,U,51444,999,23650,.8152354E-4,.597E-5,0
GAOFEN-12 03,2022-069A,2026-06-16T15:32:16.344960,14.80033864,.00020263,97.8287,55.5315,104.0525,256.0913,0,U,52912,999,21453,.11464107E-3,.817E-5,0
SWOT,2022-173A,2026-06-16T13:25:43.202784,14.00169604,.00002358,77.6106,36.1576,87.5653,272.5525,0,U,54754,999,17906,.145122E-4,.19E-6,0
GAOFEN-12 04,2023-123A,2026-06-16T14:19:02.989632,14.80227747,.00017963,97.9122,85.6228,83.4011,276.7405,0,U,57654,999,15254,.11275698E-3,.806E-5,0
PARS 1,2024-039Q,2026-06-16T14:27:28.509120,15.45713734,.00114687,97.4821,148.5037,113.2566,246.9891,0,U,59065,999,12855,.1932009E-3,.9261E-4,0
RESURS-P 4,2024-061A,2026-06-16T14:38:28.536864,15.32128337,.00021289,97.2754,115.5189,127.6800,232.4636,0,U,59371,999,12367,.84171669E-4,.2535E-4,0
LEGION 1,2024-081A,2026-06-16T13:36:50.029344,15.16663604,.00095808,97.5021,245.4306,20.1466,340.0143,0,U,59625,999,11744,.16954002E-3,.3254E-4,0
LEGION 2,2024-081B,2026-06-16T12:44:58.983936,15.16642230,.00108327,97.5021,245.4925,346.0887,14.0046,0,U,59626,999,11744,.15048815E-3,.2879E-4,0
ALOS-4 (DAICHI-4),2024-123A,2026-06-15T20:57:49.442688,14.79475009,.0001588,97.9245,264.0657,97.6943,262.4449,0,U,60182,999,10568,.17718E-3,.1272E-4,0
LEGION 3,2024-146A,2026-06-16T12:54:35.044704,15.16033136,.00075727,45.0021,34.0375,166.6105,193.4976,0,U,60452,999,10192,.15771831E-3,.2821E-4,0
LEGION 4,2024-146B,2026-06-16T08:14:22.166304,15.16024420,.00138163,45.0002,126.9908,304.0625,55.8942,0,U,60453,999,10074,.18855888E-3,.3428E-4,0
SENTINEL-2C,2024-157A,2026-06-16T11:21:28.358496,14.30817627,.00010317,98.5692,242.2653,80.8680,279.2620,0,U,60989,999,9288,.52554565E-4,.94E-6,0
IONOSFERA-M 1,2024-199A,2026-06-16T13:27:38.184768,14.22754239,.00019364,98.7173,40.7397,111.3355,248.8030,0,U,61735,999,12761,.43059857E-4,.53E-6,0
