GAOFEN-11 01            
1 43585U 18063A   26167.59429030  .00014978  00000+0  22246-3 0  9994
2 43585  97.1293 234.4754 0003248   0.8796 359.2465 15.55277466440251
ICESAT-2                
1 43613U 18070A   26167.56574583  .00007959  00000+0  28890-3 0  9997
2 43613  92.0084 290.8108 0005994 108.0359 252.1544 15.28273082432362
HYSIS                   
1 43719U 18096A   26167.39938139  .00000529  00000+0  79264-4 0  9992
2 43719  97.9845 234.1538 0001924 106.8178 253.3244 14.78693317407307
KAZSTSAT                
1 43783U 18099AB  26167.56378611  .00001369  00000+0  11492-3 0  9999
2 43783  97.4268 199.5204 0008478  71.4916 288.7229 14.99864377411213
SAUDISAT 5A             
1 43831U 18102A   26167.64094148  .00004641  00000+0  17211-3 0  9998
2 43831  97.3068 229.2324 0010970 130.6874 229.5321 15.28043580415598
SAUDISAT 5B             
1 43833U 18102C   26167.59440285  .00004505  00000+0  16581-3 0  9999
2 43833  97.3176 232.2553 0011651 133.0831 227.1386 15.28300202415700
GAOFEN-10R              
1 44622U 19066A   26167.61404735  .00000922  00000+0  12004-3 0  9994
2 44622  98.0497 121.1891 0006641 129.0677 231.1128 14.83059659362299
CARTOSAT-3              
1 44804U 19081A   26167.56456803  .00004670  00000+0  22412-3 0  9998
2 44804  97.4309 229.4417 0013199 150.3638 209.8347 15.19281750363376
GAOFEN-12 01            
1 44819U 19082A   26167.60660157  .00000299  00000+0  45756-4 0  9999
2 44819  97.8100 174.0014 0002295  70.7140 289.4321 14.80458043354005
CSG-1                   
1 44873U 19092A   26167.57877372  .00000314  00000+0  46023-4 0  9991
2 44873  97.8887 351.1900 0001461  89.7860 270.3521 14.82152715351380
NEMO-HD                 
1 46277U 20061F   26167.61148498  .00009170  00000+0  19910-3 0  9997
2 46277  97.1919 229.5701 0002295  81.8478 278.3031 15.44584225321891
SENTINEL-6A             
1 46984U 20086A   26167.30472411 -.00000075  00000+0 -59546-4 0  9997
2 46984  66.0394 136.8852 0007945 270.2348  89.7757 12.80929950260214
CAS500-1                
1 47932U 21022A   26167.60225691  .00005628  00000+0  26342-3 0  9995
2 47932  97.3903  62.8678 0003433 304.4770  55.6141 15.20127110290679
GAOFEN-12 02            
1 48079U 21026A   26167.61759778  .00000289  00000+0  44864-4 0  9999
2 48079  97.9921 165.8005 0003635 224.2159 135.8762 14.80295793281678
PLEIADES NEO 3          
1 48268U 21034A   26167.64535529  .00001598  00000+0  20956-3 0  9996
2 48268  97.8937 242.4199 0001403  88.4556 271.6818 14.81675568277570
PLEIADES NEO 4          
1 49070U 21073E   26167.61157846  .00000761  00000+0  10326-3 0  9991
2 49070  97.8941 242.3822 0001360  85.1090 275.0278 14.81674953261284
LANDSAT 9               
1 49260U 21088A   26167.16646890  .00000317  00000+0  80381-4 0  9996
2 49260  98.2281 237.3563 0001357  85.6882 274.4471 14.57096555250851
CSG-2                   
1 51444U 22008A   26167.61251177  .00000597  00000+0  81524-4 0  9996
2 51444  97.8876 351.2183 0001458  86.1478 273.9901 14.82157316236505
GAOFEN-12 03            
1 52912U 22069A   26167.64741140  .00000817  00000+0  11464-3 0  9991
2 52912  97.8287  55.5315 0002026 104.0525 256.0913 14.80033864214531
SWOT                    
1 54754U 22173A   26167.55952781  .00000019  00000+0  14512-4 0  9990
2 54754  77.6106  36.1576 0000235  87.5653 272.5525 14.00169604179068
GAOFEN-12 04            
1 57654U 23123A   26167.59656238  .00000806  00000+0  11276-3 0  9997
2 57654  97.9122  85.6228 0001796  83.4011 276.7405 14.80227747152540
PARS 1                  
1 59065U 24039Q   26167.60241330  .00009261  00000+0  19320-3 0  9999
2 59065  97.4821 148.5037 0011468 113.2566 246.9891 15.45713734128550
RESURS-P 4              
1 59371U 24061A   26167.61005251  .00002535  00000+0  84172-4 0  9990
2 59371  97.2754 115.5189 0002128 127.6800 232.4636 15.32128337123678
LEGION 1                
1 59625U 24081A   26167.56724571  .00003254  00000+0  16954-3 0  9992
2 59625  97.5021 245.4306 0009580  20.1466 340.0143 15.16663604117448
LEGION 2                
1 59626U 24081B   26167.53123824  .00002879  00000+0  15049-3 0  9990
2 59626  97.5021 245.4925 0010832 346.0887  14.0046 15.16642230117447
ALOS-4 (DAICHI-4)       
1 60182U 24123A   26166.87348892  .00001272  00000+0  17718-3 0  9997
2 60182  97.9245 264.0657 0001588  97.6943 262.4449 14.79475009105682
LEGION 3                
1 60452U 24146A   26167.53790561  .00002821  00000+0  15772-3 0  9999
2 60452  45.0021  34.0375 0007572 166.6105 193.4976 15.16033136101920
LEGION 4                
1 60453U 24146B   26167.34331211  .00003428  00000+0  18856-3 0  9992
2 60453  45.0002 126.9908 0013816 304.0625  55.8942 15.16024420100745
SENTINEL-2C             
1 60989U 24157A   26167.47324489  .00000094  00000+0  52555-4 0  9992
2 60989  98.5692 242.2653 0001031  80.8680 279.2620 14.30817627 92886
IONOSFERA-M 1           
1 61735U 24199A   26167.56085862  .00000053  00000+0  43060-4 0  9993
2 61735  98.7173  40.7397 0001936 111.3355 248.8030 14.22754239127618
